[{"OBJECT_NAME":"ONEWEB-0341","OBJECT_ID":"2021-083X","EPOCH":"2026-04-13T22:46:51.533184","MEAN_MOTION":13.18684139,"ECCENTRICITY":0.0001482,"INCLINATION":87.9222,"RA_OF_ASC_NODE":348.2342,"ARG_OF_PERICENTER":65.3735,"MEAN_ANOMALY":294.7552,"EPHEMERIS_TYPE":0,"CLASSIFICATION_TYPE":"U","NORAD_CAT_ID":49207,"ELEMENT_SET_NO":999,"REV_AT_EPOCH":22152,"BSTAR":-8.744200000000001e-05,"MEAN_MOTION_DOT":-2.2e-07,"MEAN_MOTION_DDOT":0.0},{"OBJECT_NAME":"ONEWEB-0342","OBJECT_ID":"2021-083Y","EPOCH":"2026-04-14T06:15:16.824960","MEAN_MOTION":13.20771324,"ECCENTRICITY":0.0001915,"INCLINATION":87.9135,"RA_OF_ASC_NODE":287.1978,"ARG_OF_PERICENTER":90.642,"MEAN_ANOMALY":269.4933,"EPHEMERIS_TYPE":0,"CLASSIFICATION_TYPE":"U","NORAD_CAT_ID":49208,"ELEMENT_SET_NO":999,"REV_AT_EPOCH":22834,"BSTAR":-0.0012211,"MEAN_MOTION_DOT":-4.83e-06,"MEAN_MOTION_DDOT":0.0},{"OBJECT_NAME":"ONEWEB-0343","OBJECT_ID":"2021-083Z","EPOCH":"2026-04-13T22:58:44.957856","MEAN_MOTION":13.186864,"ECCENTRICITY":0.0001852,"INCLINATION":87.9221,"RA_OF_ASC_NODE":348.2285,"ARG_OF_PERICENTER":64.7734,"MEAN_ANOMALY":295.359,"EPHEMERIS_TYPE":0,"CLASSIFICATION_TYPE":"U","NORAD_CAT_ID":49209,"ELEMENT_SET_NO":999,"REV_AT_EPOCH":22157,"BSTAR":-1.1609e-05,"MEAN_MOTION_DOT":8e-08,"MEAN_MOTION_DDOT":0.0},{"OBJECT_NAME":"ONEWEB-0344","OBJECT_ID":"2021-083AA","EPOCH":"2026-04-14T03:08:10.006368","MEAN_MOTION":13.13469686,"ECCENTRICITY":0.000148,"INCLINATION":87.8978,"RA_OF_ASC_NODE":333.0054,"ARG_OF_PERICENTER":71.542,"MEAN_ANOMALY":288.587,"EPHEMERIS_TYPE":0,"CLASSIFICATION_TYPE":"U","NORAD_CAT_ID":49210,"ELEMENT_SET_NO":999,"REV_AT_EPOCH":22248,"BSTAR":-0.00045599000000000003,"MEAN_MOTION_DOT":-1.54e-06,"MEAN_MOTION_DDOT":0.0},{"OBJECT_NAME":"ONEWEB-0345","OBJECT_ID":"2021-083AB","EPOCH":"2026-04-13T21:26:52.554048","MEAN_MOTION":13.13469507,"ECCENTRICITY":0.000155,"INCLINATION":87.8961,"RA_OF_ASC_NODE":333.0228,"ARG_OF_PERICENTER":72.8844,"MEAN_ANOMALY":287.2455,"EPHEMERIS_TYPE":0,"CLASSIFICATION_TYPE":"U","NORAD_CAT_ID":49211,"ELEMENT_SET_NO":999,"REV_AT_EPOCH":22246,"BSTAR":-0.0007723200000000001,"MEAN_MOTION_DOT":-2.69e-06,"MEAN_MOTION_DDOT":0.0},{"OBJECT_NAME":"ONEWEB-0346","OBJECT_ID":"2021-083AC","EPOCH":"2026-04-13T22:53:58.890048","MEAN_MOTION":13.18684375,"ECCENTRICITY":0.0001364,"INCLINATION":87.9218,"RA_OF_ASC_NODE":348.2342,"ARG_OF_PERICENTER":101.1946,"MEAN_ANOMALY":258.9339,"EPHEMERIS_TYPE":0,"CLASSIFICATION_TYPE":"U","NORAD_CAT_ID":49212,"ELEMENT_SET_NO":999,"REV_AT_EPOCH":22151,"BSTAR":0.00016446,"MEAN_MOTION_DOT":7.8e-07,"MEAN_MOTION_DDOT":0.0},{"OBJECT_NAME":"ONEWEB-0348","OBJECT_ID":"2021-083AD","EPOCH":"2026-04-14T06:01:38.646336","MEAN_MOTION":13.2077365,"ECCENTRICITY":0.0001253,"INCLINATION":87.9142,"RA_OF_ASC_NODE":287.203,"ARG_OF_PERICENTER":100.5452,"MEAN_ANOMALY":259.5823,"EPHEMERIS_TYPE":0,"CLASSIFICATION_TYPE":"U","NORAD_CAT_ID":49213,"ELEMENT_SET_NO":999,"REV_AT_EPOCH":22837,"BSTAR":6.7474e-05,"MEAN_MOTION_DOT":4e-07,"MEAN_MOTION_DDOT":0.0},{"OBJECT_NAME":"ONEWEB-0350","OBJECT_ID":"2021-083AE","EPOCH":"2026-04-14T03:09:21.605184","MEAN_MOTION":13.13470861,"ECCENTRICITY":0.0001424,"INCLINATION":87.8991,"RA_OF_ASC_NODE":332.9758,"ARG_OF_PERICENTER":73.8606,"MEAN_ANOMALY":286.268,"EPHEMERIS_TYPE":0,"CLASSIFICATION_TYPE":"U","NORAD_CAT_ID":49214,"ELEMENT_SET_NO":999,"REV_AT_EPOCH":22252,"BSTAR":-0.0011777,"MEAN_MOTION_DOT":-4.17e-06,"MEAN_MOTION_DDOT":0.0},{"OBJECT_NAME":"ONEWEB-0351","OBJECT_ID":"2021-083AF","EPOCH":"2026-04-14T05:52:20.966304","MEAN_MOTION":13.20771435,"ECCENTRICITY":0.0002248,"INCLINATION":87.9141,"RA_OF_ASC_NODE":287.2027,"ARG_OF_PERICENTER":71.0488,"MEAN_ANOMALY":289.0888,"EPHEMERIS_TYPE":0,"CLASSIFICATION_TYPE":"U","NORAD_CAT_ID":49215,"ELEMENT_SET_NO":999,"REV_AT_EPOCH":22833,"BSTAR":-0.00065332,"MEAN_MOTION_DOT":-2.53e-06,"MEAN_MOTION_DDOT":0.0},{"OBJECT_NAME":"ONEWEB-0352","OBJECT_ID":"2021-083AG","EPOCH":"2026-04-13T21:12:14.960736","MEAN_MOTION":13.13469897,"ECCENTRICITY":0.000204,"INCLINATION":87.8979,"RA_OF_ASC_NODE":333.0396,"ARG_OF_PERICENTER":73.7172,"MEAN_ANOMALY":286.4182,"EPHEMERIS_TYPE":0,"CLASSIFICATION_TYPE":"U","NORAD_CAT_ID":49216,"ELEMENT_SET_NO":999,"REV_AT_EPOCH":22258,"BSTAR":-0.00057073,"MEAN_MOTION_DOT":-1.96e-06,"MEAN_MOTION_DDOT":0.0},{"OBJECT_NAME":"ONEWEB-0354","OBJECT_ID":"2021-083AH","EPOCH":"2026-04-14T06:28:54.974208","MEAN_MOTION":13.20773378,"ECCENTRICITY":0.0001443,"INCLINATION":87.9143,"RA_OF_ASC_NODE":287.1967,"ARG_OF_PERICENTER":91.1953,"MEAN_ANOMALY":268.9346,"EPHEMERIS_TYPE":0,"CLASSIFICATION_TYPE":"U","NORAD_CAT_ID":49217,"ELEMENT_SET_NO":999,"REV_AT_EPOCH":22837,"BSTAR":0.00014878,"MEAN_MOTION_DOT":7.3e-07,"MEAN_MOTION_DDOT":0.0},{"OBJECT_NAME":"ONEWEB-0355","OBJECT_ID":"2021-083AJ","EPOCH":"2026-04-14T03:22:59.172096","MEAN_MOTION":13.1346986,"ECCENTRICITY":0.0001743,"INCLINATION":87.8975,"RA_OF_ASC_NODE":332.9962,"ARG_OF_PERICENTER":75.0054,"MEAN_ANOMALY":285.1268,"EPHEMERIS_TYPE":0,"CLASSIFICATION_TYPE":"U","NORAD_CAT_ID":49218,"ELEMENT_SET_NO":999,"REV_AT_EPOCH":22249,"BSTAR":4.024e-05,"MEAN_MOTION_DOT":2.7e-07,"MEAN_MOTION_DDOT":0.0},{"OBJECT_NAME":"ONEWEB-0357","OBJECT_ID":"2021-083AK","EPOCH":"2026-04-13T17:40:44.607360","MEAN_MOTION":13.2077275,"ECCENTRICITY":0.0001856,"INCLINATION":87.9139,"RA_OF_ASC_NODE":287.2978,"ARG_OF_PERICENTER":87.5186,"MEAN_ANOMALY":272.616,"EPHEMERIS_TYPE":0,"CLASSIFICATION_TYPE":"U","NORAD_CAT_ID":49219,"ELEMENT_SET_NO":999,"REV_AT_EPOCH":22830,"BSTAR":0.00011289000000000001,"MEAN_MOTION_DOT":5.9e-07,"MEAN_MOTION_DDOT":0.0},{"OBJECT_NAME":"ONEWEB-0332","OBJECT_ID":"2021-090A","EPOCH":"2026-04-14T06:42:44.455680","MEAN_MOTION":13.14502604,"ECCENTRICITY":0.0002022,"INCLINATION":87.8925,"RA_OF_ASC_NODE":302.4656,"ARG_OF_PERICENTER":89.1353,"MEAN_ANOMALY":271.0008,"EPHEMERIS_TYPE":0,"CLASSIFICATION_TYPE":"U","NORAD_CAT_ID":49279,"ELEMENT_SET_NO":999,"REV_AT_EPOCH":21918,"BSTAR":-0.001439,"MEAN_MOTION_DOT":-5.21e-06,"MEAN_MOTION_DDOT":0.0},{"OBJECT_NAME":"ONEWEB-0347","OBJECT_ID":"2021-090B","EPOCH":"2026-04-14T06:10:44.628672","MEAN_MOTION":13.20772442,"ECCENTRICITY":0.0002009,"INCLINATION":87.9137,"RA_OF_ASC_NODE":287.2025,"ARG_OF_PERICENTER":95.9204,"MEAN_ANOMALY":264.2159,"EPHEMERIS_TYPE":0,"CLASSIFICATION_TYPE":"U","NORAD_CAT_ID":49280,"ELEMENT_SET_NO":999,"REV_AT_EPOCH":22260,"BSTAR":-6.073800000000001e-05,"MEAN_MOTION_DOT":-1.2e-07,"MEAN_MOTION_DDOT":0.0},{"OBJECT_NAME":"ONEWEB-0349","OBJECT_ID":"2021-090C","EPOCH":"2026-04-14T05:07:06.952224","MEAN_MOTION":13.20772699,"ECCENTRICITY":0.0001746,"INCLINATION":87.9137,"RA_OF_ASC_NODE":287.2115,"ARG_OF_PERICENTER":91.9248,"MEAN_ANOMALY":268.2086,"EPHEMERIS_TYPE":0,"CLASSIFICATION_TYPE":"U","NORAD_CAT_ID":49281,"ELEMENT_SET_NO":999,"REV_AT_EPOCH":22138,"BSTAR":2.9739e-05,"MEAN_MOTION_DOT":2.5e-07,"MEAN_MOTION_DDOT":0.0}]