ONEWEB-0341             
1 49207U 21083X   26103.94920756 -.00000022  00000+0 -87442-4 0  9994
2 49207  87.9222 348.2342 0001482  65.3735 294.7552 13.18684139221524
ONEWEB-0342             
1 49208U 21083Y   26104.26061140 -.00000483  00000+0 -12211-2 0  9995
2 49208  87.9135 287.1978 0001915  90.6420 269.4933 13.20771324228342
ONEWEB-0343             
1 49209U 21083Z   26103.95746479  .00000008  00000+0 -11609-4 0  9990
2 49209  87.9221 348.2285 0001852  64.7734 295.3590 13.18686400221571
ONEWEB-0344             
1 49210U 21083AA  26104.13067137 -.00000154  00000+0 -45599-3 0  9997
2 49210  87.8978 333.0054 0001480  71.5420 288.5870 13.13469686222488
ONEWEB-0345             
1 49211U 21083AB  26103.89366382 -.00000269  00000+0 -77232-3 0  9990
2 49211  87.8961 333.0228 0001550  72.8844 287.2455 13.13469507222461
ONEWEB-0346             
1 49212U 21083AC  26103.95415382  .00000078  00000+0  16446-3 0  9999
2 49212  87.9218 348.2342 0001364 101.1946 258.9339 13.18684375221513
ONEWEB-0348             
1 49213U 21083AD  26104.25114174  .00000040  00000+0  67474-4 0  9996
2 49213  87.9142 287.2030 0001253 100.5452 259.5823 13.20773650228372
ONEWEB-0350             
1 49214U 21083AE  26104.13150006 -.00000417  00000+0 -11777-2 0  9991
2 49214  87.8991 332.9758 0001424  73.8606 286.2680 13.13470861222521
ONEWEB-0351             
1 49215U 21083AF  26104.24468711 -.00000253  00000+0 -65332-3 0  9994
2 49215  87.9141 287.2027 0002248  71.0488 289.0888 13.20771435228339
ONEWEB-0352             
1 49216U 21083AG  26103.88350649 -.00000196  00000+0 -57073-3 0  9993
2 49216  87.8979 333.0396 0002040  73.7172 286.4182 13.13469897222583
ONEWEB-0354             
1 49217U 21083AH  26104.27008072  .00000073  00000+0  14878-3 0  9996
2 49217  87.9143 287.1967 0001443  91.1953 268.9346 13.20773378228378
ONEWEB-0355             
1 49218U 21083AJ  26104.14096264  .00000027  00000+0  40240-4 0  9995
2 49218  87.8975 332.9962 0001743  75.0054 285.1268 13.13469860222492
ONEWEB-0357             
1 49219U 21083AK  26103.73662740  .00000059  00000+0  11289-3 0  9993
2 49219  87.9139 287.2978 0001856  87.5186 272.6160 13.20772750228305
ONEWEB-0332             
1 49279U 21090A   26104.27968120 -.00000521  00000+0 -14390-2 0  9999
2 49279  87.8925 302.4656 0002022  89.1353 271.0008 13.14502604219188
ONEWEB-0347             
1 49280U 21090B   26104.25746098 -.00000012  00000+0 -60738-4 0  9991
2 49280  87.9137 287.2025 0002009  95.9204 264.2159 13.20772442222609
ONEWEB-0349             
1 49281U 21090C   26104.21327491  .00000025  00000+0  29739-4 0  9998
2 49281  87.9137 287.2115 0001746  91.9248 268.2086 13.20772699221382
